CCSDS_OMM_VERS = 2.0
CREATION_DATE  = 
ORIGINATOR     = 

OBJECT_NAME    = UNKNOWN
OBJECT_ID      = 
CENTER_NAME    = EARTH
REF_FRAME      = TEME
TIME_SYSTEM    = UTC
MEAN_ELEMENT_THEORY = SGP/SGP4

EPOCH          = 2025-11-26T23:10:32.517696
MEAN_MOTION    = 14.94136890
ECCENTRICITY   = .0023908
INCLINATION    = 98.0492
RA_OF_ASC_NODE = 229.8182
ARG_OF_PERICENTER = 20.6251
MEAN_ANOMALY   = 339.5928

EPHEMERIS_TYPE = 0
CLASSIFICATION_TYPE = U
NORAD_CAT_ID   = 89029
ELEMENT_SET_NO = 999
REV_AT_EPOCH   = 64872
BSTAR          = .60139E-3
MEAN_MOTION_DOT = .641E-4
MEAN_MOTION_DDOT = 0

CCSDS_OMM_VERS = 2.0
CREATION_DATE  = 
ORIGINATOR     = 

OBJECT_NAME    = UNKNOWN
OBJECT_ID      = 
CENTER_NAME    = EARTH
REF_FRAME      = TEME
TIME_SYSTEM    = UTC
MEAN_ELEMENT_THEORY = SGP/SGP4

EPOCH          = 2025-11-21T14:43:53.469984
MEAN_MOTION    = 13.03997758
ECCENTRICITY   = .0146763
INCLINATION    = 100.4596
RA_OF_ASC_NODE = 262.9913
ARG_OF_PERICENTER = 154.8688
MEAN_ANOMALY   = 205.9652

EPHEMERIS_TYPE = 0
CLASSIFICATION_TYPE = U
NORAD_CAT_ID   = 89101
ELEMENT_SET_NO = 999
REV_AT_EPOCH   = 55209
BSTAR          = .13668E-3
MEAN_MOTION_DOT = .3E-7
MEAN_MOTION_DDOT = 0

CCSDS_OMM_VERS = 2.0
CREATION_DATE  = 
ORIGINATOR     = 

OBJECT_NAME    = UNKNOWN
OBJECT_ID      = 
CENTER_NAME    = EARTH
REF_FRAME      = TEME
TIME_SYSTEM    = UTC
MEAN_ELEMENT_THEORY = SGP/SGP4

EPOCH          = 2025-11-28T12:54:03.394656
MEAN_MOTION    = 8.86339253
ECCENTRICITY   = .2931635
INCLINATION    = 63.4191
RA_OF_ASC_NODE = 66.9241
ARG_OF_PERICENTER = 319.6321
MEAN_ANOMALY   = 21.9613

EPHEMERIS_TYPE = 0
CLASSIFICATION_TYPE = U
NORAD_CAT_ID   = 89132
ELEMENT_SET_NO = 999
REV_AT_EPOCH   = 32385
BSTAR          = .42898E-2
MEAN_MOTION_DOT = .3163E-4
MEAN_MOTION_DDOT = 0

CCSDS_OMM_VERS = 2.0
CREATION_DATE  = 
ORIGINATOR     = 

OBJECT_NAME    = UNKNOWN
OBJECT_ID      = 
CENTER_NAME    = EARTH
REF_FRAME      = TEME
TIME_SYSTEM    = UTC
MEAN_ELEMENT_THEORY = SGP/SGP4

EPOCH          = 2025-11-30T12:57:27.381600
MEAN_MOTION    = 14.62866660
ECCENTRICITY   = .009505
INCLINATION    = 98.2461
RA_OF_ASC_NODE = 263.2691
ARG_OF_PERICENTER = 93.2264
MEAN_ANOMALY   = 267.9818

EPHEMERIS_TYPE = 0
CLASSIFICATION_TYPE = U
NORAD_CAT_ID   = 89146
ELEMENT_SET_NO = 999
REV_AT_EPOCH   = 62709
BSTAR          = .77814E-3
MEAN_MOTION_DOT = .4194E-4
MEAN_MOTION_DDOT = 0

CCSDS_OMM_VERS = 2.0
CREATION_DATE  = 
ORIGINATOR     = 

OBJECT_NAME    = UNKNOWN
OBJECT_ID      = 
CENTER_NAME    = EARTH
REF_FRAME      = TEME
TIME_SYSTEM    = UTC
MEAN_ELEMENT_THEORY = SGP/SGP4

EPOCH          = 2025-11-28T12:05:22.831008
MEAN_MOTION    = 15.36691218
ECCENTRICITY   = .0041617
INCLINATION    = 97.6616
RA_OF_ASC_NODE = 347.5910
ARG_OF_PERICENTER = 111.5288
MEAN_ANOMALY   = 249.0400

EPHEMERIS_TYPE = 0
CLASSIFICATION_TYPE = U
NORAD_CAT_ID   = 89161
ELEMENT_SET_NO = 999
REV_AT_EPOCH   = 54639
BSTAR          = .20404E-2
MEAN_MOTION_DOT = .75808E-3
MEAN_MOTION_DDOT = 0

CCSDS_OMM_VERS = 2.0
CREATION_DATE  = 
ORIGINATOR     = 

OBJECT_NAME    = UNKNOWN
OBJECT_ID      = 
CENTER_NAME    = EARTH
REF_FRAME      = TEME
TIME_SYSTEM    = UTC
MEAN_ELEMENT_THEORY = SGP/SGP4

EPOCH          = 2025-11-28T23:42:09.108288
MEAN_MOTION    = 14.45939828
ECCENTRICITY   = .0294211
INCLINATION    = 82.0647
RA_OF_ASC_NODE = 234.8471
ARG_OF_PERICENTER = 324.0687
MEAN_ANOMALY   = 34.1028

EPHEMERIS_TYPE = 0
CLASSIFICATION_TYPE = U
NORAD_CAT_ID   = 89172
ELEMENT_SET_NO = 999
REV_AT_EPOCH   = 59990
BSTAR          = .27689E-2
MEAN_MOTION_DOT = .16958E-3
MEAN_MOTION_DDOT = 0

CCSDS_OMM_VERS = 2.0
CREATION_DATE  = 
ORIGINATOR     = 

OBJECT_NAME    = UNKNOWN
OBJECT_ID      = 
CENTER_NAME    = EARTH
REF_FRAME      = TEME
TIME_SYSTEM    = UTC
MEAN_ELEMENT_THEORY = SGP/SGP4

EPOCH          = 2025-11-28T14:29:50.041824
MEAN_MOTION    = 13.73722918
ECCENTRICITY   = .0032265
INCLINATION    = 82.9201
RA_OF_ASC_NODE = 279.5997
ARG_OF_PERICENTER = 179.4907
MEAN_ANOMALY   = 180.6287

EPHEMERIS_TYPE = 0
CLASSIFICATION_TYPE = U
NORAD_CAT_ID   = 89177
ELEMENT_SET_NO = 999
REV_AT_EPOCH   = 6088
BSTAR          = .10844E-3
MEAN_MOTION_DOT = .117E-5
MEAN_MOTION_DDOT = 0

CCSDS_OMM_VERS = 2.0
CREATION_DATE  = 
ORIGINATOR     = 

OBJECT_NAME    = UNKNOWN
OBJECT_ID      = 
CENTER_NAME    = EARTH
REF_FRAME      = TEME
TIME_SYSTEM    = UTC
MEAN_ELEMENT_THEORY = SGP/SGP4

EPOCH          = 2025-11-30T00:21:29.995200
MEAN_MOTION    = 13.81561149
ECCENTRICITY   = .0129649
INCLINATION    = 99.2179
RA_OF_ASC_NODE = 245.3834
ARG_OF_PERICENTER = 190.3565
MEAN_ANOMALY   = 169.4913

EPHEMERIS_TYPE = 0
CLASSIFICATION_TYPE = U
NORAD_CAT_ID   = 89183
ELEMENT_SET_NO = 999
REV_AT_EPOCH   = 60521
BSTAR          = .49237E-3
MEAN_MOTION_DOT = .516E-5
MEAN_MOTION_DDOT = 0

CCSDS_OMM_VERS = 2.0
CREATION_DATE  = 
ORIGINATOR     = 

OBJECT_NAME    = UNKNOWN
OBJECT_ID      = 
CENTER_NAME    = EARTH
REF_FRAME      = TEME
TIME_SYSTEM    = UTC
MEAN_ELEMENT_THEORY = SGP/SGP4

EPOCH          = 2025-11-30T14:03:05.058144
MEAN_MOTION    = 14.80132178
ECCENTRICITY   = .0008129
INCLINATION    = 98.3902
RA_OF_ASC_NODE = 198.7580
ARG_OF_PERICENTER = 160.4761
MEAN_ANOMALY   = 199.6762

EPHEMERIS_TYPE = 0
CLASSIFICATION_TYPE = U
NORAD_CAT_ID   = 89184
ELEMENT_SET_NO = 999
REV_AT_EPOCH   = 49037
BSTAR          = .33489E-2
MEAN_MOTION_DOT = .25457E-3
MEAN_MOTION_DDOT = 0

CCSDS_OMM_VERS = 2.0
CREATION_DATE  = 
ORIGINATOR     = 

OBJECT_NAME    = UNKNOWN
OBJECT_ID      = 
CENTER_NAME    = EARTH
REF_FRAME      = TEME
TIME_SYSTEM    = UTC
MEAN_ELEMENT_THEORY = SGP/SGP4

EPOCH          = 2025-11-30T02:50:57.790752
MEAN_MOTION    = 13.91568480
ECCENTRICITY   = .0227667
INCLINATION    = 98.7799
RA_OF_ASC_NODE = 207.9253
ARG_OF_PERICENTER = 160.9581
MEAN_ANOMALY   = 200.0267

EPHEMERIS_TYPE = 0
CLASSIFICATION_TYPE = U
NORAD_CAT_ID   = 89213
ELEMENT_SET_NO = 999
REV_AT_EPOCH   = 45091
BSTAR          = .24639E-3
MEAN_MOTION_DOT = .346E-5
MEAN_MOTION_DDOT = 0

CCSDS_OMM_VERS = 2.0
CREATION_DATE  = 
ORIGINATOR     = 

OBJECT_NAME    = UNKNOWN
OBJECT_ID      = 
CENTER_NAME    = EARTH
REF_FRAME      = TEME
TIME_SYSTEM    = UTC
MEAN_ELEMENT_THEORY = SGP/SGP4

EPOCH          = 2025-11-30T06:28:45.688800
MEAN_MOTION    = 9.24382807
ECCENTRICITY   = .2835082
INCLINATION    = 62.4787
RA_OF_ASC_NODE = 19.7265
ARG_OF_PERICENTER = 99.5319
MEAN_ANOMALY   = 293.3152

EPHEMERIS_TYPE = 0
CLASSIFICATION_TYPE = U
NORAD_CAT_ID   = 89251
ELEMENT_SET_NO = 999
REV_AT_EPOCH   = 37203
BSTAR          = .42511E-2
MEAN_MOTION_DOT = .7211E-4
MEAN_MOTION_DDOT = 0

CCSDS_OMM_VERS = 2.0
CREATION_DATE  = 
ORIGINATOR     = 

OBJECT_NAME    = UNKNOWN
OBJECT_ID      = 
CENTER_NAME    = EARTH
REF_FRAME      = TEME
TIME_SYSTEM    = UTC
MEAN_ELEMENT_THEORY = SGP/SGP4

EPOCH          = 2025-11-28T17:57:58.262400
MEAN_MOTION    = 14.43071030
ECCENTRICITY   = .00124
INCLINATION    = 98.1535
RA_OF_ASC_NODE = 327.7647
ARG_OF_PERICENTER = 196.6700
MEAN_ANOMALY   = 163.4085

EPHEMERIS_TYPE = 0
CLASSIFICATION_TYPE = U
NORAD_CAT_ID   = 89261
ELEMENT_SET_NO = 999
REV_AT_EPOCH   = 53179
BSTAR          = .29887E-3
MEAN_MOTION_DOT = .962E-5
MEAN_MOTION_DDOT = 0

