UNKNOWN                 
1 89029U          25330.96565414  .00006410  00000+0  60139-3 0  9993
2 89029  98.0492 229.8182 0023908  20.6251 339.5928 14.94136890648723
UNKNOWN                 
1 89101U          25325.61381331  .00000003  00000+0  13668-3 0  9991
2 89101 100.4596 262.9913 0146763 154.8688 205.9652 13.03997758552097
UNKNOWN                 
1 89132U          25332.53753929  .00003163  00000+0  42898-2 0  9996
2 89132  63.4191  66.9241 2931635 319.6321  21.9613  8.86339253323851
UNKNOWN                 
1 89146U          25334.53990025  .00004194  00000+0  77814-3 0  9995
2 89146  98.2461 263.2691 0095050  93.2264 267.9818 14.62866660627094
UNKNOWN                 
1 89161U          25332.50373647  .00075808  00000+0  20404-2 0  9994
2 89161  97.6616 347.5910 0041617 111.5288 249.0400 15.36691218546394
UNKNOWN                 
1 89172U          25332.98760542  .00016958  00000+0  27689-2 0  9995
2 89172  82.0647 234.8471 0294211 324.0687  34.1028 14.45939828599907
UNKNOWN                 
1 89177U          25332.60405141  .00000117  00000+0  10844-3 0  9996
2 89177  82.9201 279.5997 0032265 179.4907 180.6287 13.73722918 60886
UNKNOWN                 
1 89183U          25334.01493050  .00000516  00000+0  49237-3 0  9997
2 89183  99.2179 245.3834 0129649 190.3565 169.4913 13.81561149605213
UNKNOWN                 
1 89184U          25334.58547521  .00025457  00000+0  33489-2 0  9995
2 89184  98.3902 198.7580 0008129 160.4761 199.6762 14.80132178490374
UNKNOWN                 
1 89213U          25334.11872443  .00000346  00000+0  24639-3 0  9999
2 89213  98.7799 207.9253 0227667 160.9581 200.0267 13.91568480450913
UNKNOWN                 
1 89251U          25334.26997325  .00007211  00000+0  42511-2 0  9990
2 89251  62.4787  19.7265 2835082  99.5319 293.3152  9.24382807372038
UNKNOWN                 
1 89261U          25332.74859100  .00000962  00000+0  29887-3 0  9998
2 89261  98.1535 327.7647 0012400 196.6700 163.4085 14.43071030531796
